[{"OBJECT_NAME":"STARLINK-5971","OBJECT_ID":"2023-083AT","EPOCH":"2026-03-09T22:00:01.999584","MEAN_MOTION":15.07520475,"ECCENTRICITY":0.00019136,"INCLINATION":43.0006,"RA_OF_ASC_NODE":67.5285,"ARG_OF_PERICENTER":276.0834,"MEAN_ANOMALY":121.2729,"EPHEMERIS_TYPE":0,"CLASSIFICATION_TYPE":"U","NORAD_CAT_ID":56917,"ELEMENT_SET_NO":999,"REV_AT_EPOCH":572,"BSTAR":0.0046083449,"MEAN_MOTION_DOT":0.00071685,"MEAN_MOTION_DDOT":0},{"OBJECT_NAME":"OBJECT B","OBJECT_ID":"2024-174B","EPOCH":"2026-03-09T23:26:11.570784","MEAN_MOTION":15.09493991,"ECCENTRICITY":0.00195829,"INCLINATION":97.4508,"RA_OF_ASC_NODE":75.153,"ARG_OF_PERICENTER":270.277,"MEAN_ANOMALY":89.6216,"EPHEMERIS_TYPE":0,"CLASSIFICATION_TYPE":"U","NORAD_CAT_ID":61239,"ELEMENT_SET_NO":999,"REV_AT_EPOCH":8042,"BSTAR":0.00031274192,"MEAN_MOTION_DOT":4.97e-5,"MEAN_MOTION_DDOT":0}]
